[{"OBJECT_NAME":"BEIDOU-3 G3 (PRN 143)","OBJECT_ID":"2020-040A","EPOCH":"2026-03-29T01:34:40.920096","MEAN_MOTION":1.00272709,"ECCENTRICITY":0.0004145,"INCLINATION":2.2509,"RA_OF_ASC_NODE":67.1887,"ARG_OF_PERICENTER":321.0931,"MEAN_ANOMALY":292.42,"EPHEMERIS_TYPE":0,"CLASSIFICATION_TYPE":"U","NORAD_CAT_ID":45807,"ELEMENT_SET_NO":999,"REV_AT_EPOCH":2126,"BSTAR":0,"MEAN_MOTION_DOT":-3.71e-6,"MEAN_MOTION_DDOT":0},{"OBJECT_NAME":"GALAXY 30 (WAAS/PRN 135)","OBJECT_ID":"2020-056C","EPOCH":"2026-03-29T03:26:38.592672","MEAN_MOTION":1.00270272,"ECCENTRICITY":0.0002219,"INCLINATION":0.0236,"RA_OF_ASC_NODE":173.2951,"ARG_OF_PERICENTER":209.3258,"MEAN_ANOMALY":90.5858,"EPHEMERIS_TYPE":0,"CLASSIFICATION_TYPE":"U","NORAD_CAT_ID":46114,"ELEMENT_SET_NO":999,"REV_AT_EPOCH":2049,"BSTAR":0,"MEAN_MOTION_DOT":0,"MEAN_MOTION_DDOT":0},{"OBJECT_NAME":"QZS-1R (QZSS/PRN 196)","OBJECT_ID":"2021-096A","EPOCH":"2026-03-28T20:31:17.592672","MEAN_MOTION":1.0028248,"ECCENTRICITY":0.07493261,"INCLINATION":37.2973,"RA_OF_ASC_NODE":80.7659,"ARG_OF_PERICENTER":270.2513,"MEAN_ANOMALY":278.3326,"EPHEMERIS_TYPE":0,"CLASSIFICATION_TYPE":"U","NORAD_CAT_ID":49336,"ELEMENT_SET_NO":999,"REV_AT_EPOCH":1620,"BSTAR":0,"MEAN_MOTION_DOT":-2.31e-6,"MEAN_MOTION_DDOT":0},{"OBJECT_NAME":"QZS-6 (QZSS/PRN 200)","OBJECT_ID":"2025-023A","EPOCH":"2026-03-29T01:29:03.958368","MEAN_MOTION":1.00270273,"ECCENTRICITY":0.0002282,"INCLINATION":0.0529,"RA_OF_ASC_NODE":69.311,"ARG_OF_PERICENTER":296.1187,"MEAN_ANOMALY":293.7978,"EPHEMERIS_TYPE":0,"CLASSIFICATION_TYPE":"U","NORAD_CAT_ID":62876,"ELEMENT_SET_NO":999,"REV_AT_EPOCH":415,"BSTAR":0,"MEAN_MOTION_DOT":-2.52e-6,"MEAN_MOTION_DDOT":0}]
