BEIDOU-3 G3 (C61)       
1 45807U 20040A   26088.06575139 -.00000371  00000+0  00000+0 0  9990
2 45807   2.2509  67.1887 0004145 321.0931 292.4200  1.00272709 21262
GALAXY 30 (WAAS/PRN 135)
1 46114U 20056C   26088.14350223  .00000000  00000+0  00000+0 0  9991
2 46114   0.0236 173.2951 0002219 209.3258  90.5858  1.00270272 20491
QZS-1R (QZSS/PRN 196)   
1 49336U 21096A   26087.85506473 -.00000231  00000+0  00000+0 0  9999
2 49336  37.2973  80.7659 0749326 270.2513 278.3326  1.00282480 16209
QZS-6 (QZSS/PRN 200)    
1 62876U 25023A   26088.06185137 -.00000252  00000+0  00000+0 0  9994
2 62876   0.0529  69.3110 0002282 296.1187 293.7978  1.00270273  4152
